ISS (ZARYA)             
1 25544U 98067A   26201.79846069  .00005574  00000+0  10900-3 0  9993
2 25544  51.6312 133.7599 0006836 319.3995  40.6483 15.49066413576966
OSCAR 7 (AO-7)          
1 07530U 74089B   26201.89863118 -.00000049  00000+0 -18960-4 0  9990
2 07530 101.9907 215.4967 0012627  67.8285 359.0516 12.53698628364745
PHASE 3B (AO-10)        
1 14129U 83058B   26201.38696919 -.00000023  00000+0  00000+0 0  9997
2 14129  25.9413 214.0974 5999765 124.7892 306.9505  2.05870004296172
UOSAT 2 (UO-11)         
1 14781U 84021B   26201.84770073  .00000920  00000+0  99049-4 0  9998
2 14781  97.8081 167.0524 0009172  75.7217 284.5019 14.90857629262144
LUSAT (LO-19)           
1 20442U 90005G   26201.81037565  .00000045  00000+0  32793-4 0  9998
2 20442  98.8846 224.5413 0012656 106.3083 253.9494 14.34131740907212
EYESAT A (AO-27)        
1 22825U 93061C   26201.77297957  .00000028  00000+0  27786-4 0  9995
2 22825  98.6863 269.1713 0008427  10.0473 350.0876 14.30950010711805
ITAMSAT (IO-26)         
1 22826U 93061D   26201.74236588  .00000021  00000+0  24924-4 0  9990
2 22826  98.6811 269.0617 0008620 352.8903   7.2156 14.31377685712110
RADIO ROSTO (RS15)      
1 23439U 94085A   26201.81783308 -.00000047  00000+0 -13223-3 0  9992
2 23439  64.8143 248.8272 0157137 357.6705   2.3471 11.27583651299690
JAS-2 (FO-29)           
1 24278U 96046B   26201.43295381 -.00000049  00000+0 -13729-4 0  9994
2 24278  98.5217  45.7476 0350108  10.3648 350.4474 13.53275815477666
TECHSAT 1B (GO-32)      
1 25397U 98043D   26201.42974299  .00000017  00000+0  27497-4 0  9997
2 25397  99.0089 195.0299 0002307 106.7809 253.3622 14.24433990456064
PCSAT (NO-44)           
1 26931U 01043C   26201.33574834  .00000044  00000+0  47440-4 0  9997
2 26931  67.0500 158.5337 0005868 267.0045  93.0386 14.31966213295195
SAUDISAT 1C (SO-50)     
1 27607U 02058C   26200.92670931  .00000394  00000+0  64508-4 0  9996
2 27607  64.5521  27.6843 0074380 256.4147 102.8667 14.83103564269314
CUTE-1 (CO-55)          
1 27844U 03031E   26201.47499926  .00000146  00000+0  81840-4 0  9998
2 27844  98.6745 209.6162 0010868  89.1638 271.0786 14.24353565196410
CUBESAT XI-IV (CO-57)   
1 27848U 03031J   26201.48019381  .00000116  00000+0  70115-4 0  9996
2 27848  98.6776 209.3071 0010684 105.6000 254.6359 14.23636281196115
MOZHAETS 4 (RS22)       
1 27939U 03042A   26201.62708376  .00000245  00000+0  45965-4 0  9992
2 27939  98.3482  26.9326 0011674 156.3800 291.3422 14.73518554220477
CUBESAT XI-V            
1 28895U 05043F   26201.35563708  .00000706  00000+0  11886-3 0  9991
2 28895  98.3023 357.6819 0015362 100.1286 260.1655 14.72709962106631
CUTE-1.7+APD II (CO-65) 
1 32785U 08021C   26201.85472929  .00002878  00000+0  18257-3 0  9993
2 32785  97.8299 183.9850 0006860 275.6715  84.3731 15.09729888990278
SEEDS II (CO-66)        
1 32791U 08021J   26201.41840544  .00010808  00000+0  33333-3 0  9998
2 32791  97.7536 200.9319 0003658 145.6497 214.4982 15.33774165992386
YUBILEINY (RS30)        
1 32953U 08025A   26201.81878000  .00000078  00000+0  49213-3 0  9996
2 32953  82.5072 334.5192 0018769 236.0062 123.9235 12.43180997823872
KKS-1 (KISEKI)          
1 33499U 09002H   26201.78640565  .00000655  00000+0  87013-4 0  9999
2 33499  98.1170 124.7608 0007876 170.6960 189.4400 14.83196982941170
SWISSCUBE               
1 35932U 09051B   26201.55567777  .00000502  00000+0  10867-3 0  9998
2 35932  98.4001 110.0215 0008041 104.8066 255.4026 14.62536612894038
BEESAT-1                
1 35933U 09051C   26201.71948309  .00000407  00000+0  91451-4 0  9994
2 35933  98.3928 109.7530 0006395 115.5252 244.6610 14.61766931894089
ITUPSAT1                
1 35935U 09051E   26201.53425089  .00000377  00000+0  87689-4 0  9995
2 35935  98.4013 108.7212 0008387 128.2729 231.9226 14.60483294893602
XIWANG-1 (HOPE-1)       
1 36122U 09072B   26201.83548859  .00000410  00000+0  11898-2 0  9996
2 36122 100.4044 155.1330 0007712 152.1280 208.0247 13.16441857797436
O/OREOS (USA 219)       
1 37224U 10062C   26201.81339872  .00001258  00000+0  12413-3 0  9998
2 37224  71.9703   4.1595 0014373 354.2634   5.8369 14.93864927121666
JUGNU                   
1 37839U 11058B   26201.41702666  .00000361  00000+0  49014-4 0  9999
2 37839  19.9604 106.5369 0018639  83.7644  74.4048 14.13784435763733
SRMSAT                  
1 37841U 11058D   26201.36756309  .00000330  00000+0  35428-4 0  9999
2 37841  19.9702 218.6370 0011604 208.2906 179.8338 14.11581727762516
STRAND-1                
1 39090U 13009E   26201.47425459  .00000134  00000+0  59206-4 0  9998
2 39090  98.3940  20.8921 0009644 126.9146 233.2926 14.37180722701842
ZACUBE-1 (TSHEPISOSAT)  
1 39417U 13066B   26201.86646473  .00001847  00000+0  14537-3 0  9997
2 39417  97.7999 164.3670 0044079 137.0238 223.4443 15.01347026685786
GOMX-1                  
1 39430U 13066Q   26201.82257538  .00000605  00000+0  97868-4 0  9998
2 39430  97.6466  40.1627 0127775 330.0920  29.3028 14.69549807674852
